{
  "links" : {
    "next" : "https://api.nasa.gov/neo/rest/v1/feed?start_date=2003-08-23&end_date=2003-08-23&detailed=true&api_key=t0TVs3DtDT2H8Oy2Zy8m2eVrNsAVKAexjcZXUckd",
    "prev" : "https://api.nasa.gov/neo/rest/v1/feed?start_date=2003-08-21&end_date=2003-08-21&detailed=true&api_key=t0TVs3DtDT2H8Oy2Zy8m2eVrNsAVKAexjcZXUckd",
    "self" : "https://api.nasa.gov/neo/rest/v1/feed?start_date=2003-08-22&end_date=2003-08-22&detailed=true&api_key=t0TVs3DtDT2H8Oy2Zy8m2eVrNsAVKAexjcZXUckd"
  },
  "element_count" : 4,
  "near_earth_objects" : {
    "2003-08-22" : [ {
      "links" : {
        "self" : "https://api.nasa.gov/neo/rest/v1/neo/2242187?api_key=t0TVs3DtDT2H8Oy2Zy8m2eVrNsAVKAexjcZXUckd"
      },
      "neo_reference_id" : "2242187",
      "name" : "242187 (2003 KR18)",
      "nasa_jpl_url" : "http://ssd.jpl.nasa.gov/sbdb.cgi?sstr=2242187",
      "absolute_magnitude_h" : 17.9,
      "estimated_diameter" : {
        "kilometers" : {
          "estimated_diameter_min" : 0.6991252322,
          "estimated_diameter_max" : 1.5632915441
        },
        "meters" : {
          "estimated_diameter_min" : 699.1252322458,
          "estimated_diameter_max" : 1563.2915440869
        },
        "miles" : {
          "estimated_diameter_min" : 0.4344161447,
          "estimated_diameter_max" : 0.97138403
        },
        "feet" : {
          "estimated_diameter_min" : 2293.7180269613,
          "estimated_diameter_max" : 5128.9094295021
        }
      },
      "is_potentially_hazardous_asteroid" : false,
      "close_approach_data" : [ {
        "close_approach_date" : "2003-08-22",
        "epoch_date_close_approach" : 1061535600000,
        "relative_velocity" : {
          "kilometers_per_second" : "4.7565501561",
          "kilometers_per_hour" : "17123.5805619715",
          "miles_per_hour" : "10639.9270441872"
        },
        "miss_distance" : {
          "astronomical" : "0.2877180403",
          "lunar" : "111.9223098755",
          "kilometers" : "43042004",
          "miles" : "26745062"
        },
        "orbiting_body" : "Earth"
      } ],
      "orbital_data" : {
        "orbit_id" : "108",
        "orbit_determination_date" : "2017-04-28 06:20:28",
        "orbit_uncertainty" : "0",
        "minimum_orbit_intersection" : ".234588",
        "jupiter_tisserand_invariant" : "3.391",
        "epoch_osculation" : "2458000.5",
        "eccentricity" : ".4800626876379403",
        "semi_major_axis" : "2.345716224676674",
        "inclination" : "5.584394949629946",
        "ascending_node_longitude" : "244.0992512650083",
        "orbital_period" : "1312.235052583857",
        "perihelion_distance" : "1.219625389422467",
        "perihelion_argument" : "86.71888713011566",
        "aphelion_distance" : "3.47180705993088",
        "perihelion_time" : "2458108.168781983846",
        "mean_anomaly" : "330.4620285536019",
        "mean_motion" : ".2743410940678211",
        "equinox" : "J2000"
      }
    }, {
      "links" : {
        "self" : "https://api.nasa.gov/neo/rest/v1/neo/3156300?api_key=t0TVs3DtDT2H8Oy2Zy8m2eVrNsAVKAexjcZXUckd"
      },
      "neo_reference_id" : "3156300",
      "name" : "(2003 LS3)",
      "nasa_jpl_url" : "http://ssd.jpl.nasa.gov/sbdb.cgi?sstr=3156300",
      "absolute_magnitude_h" : 17.8,
      "estimated_diameter" : {
        "kilometers" : {
          "estimated_diameter_min" : 0.7320739893,
          "estimated_diameter_max" : 1.6369672047
        },
        "meters" : {
          "estimated_diameter_min" : 732.0739893473,
          "estimated_diameter_max" : 1636.96720474
        },
        "miles" : {
          "estimated_diameter_min" : 0.4548895468,
          "estimated_diameter_max" : 1.017163949
        },
        "feet" : {
          "estimated_diameter_min" : 2401.8176272101,
          "estimated_diameter_max" : 5370.6274839991
        }
      },
      "is_potentially_hazardous_asteroid" : false,
      "close_approach_data" : [ {
        "close_approach_date" : "2003-08-22",
        "epoch_date_close_approach" : 1061535600000,
        "relative_velocity" : {
          "kilometers_per_second" : "7.2418325797",
          "kilometers_per_hour" : "26070.5972867584",
          "miles_per_hour" : "16199.2552974305"
        },
        "miss_distance" : {
          "astronomical" : "0.378029642",
          "lunar" : "147.053527832",
          "kilometers" : "56552432",
          "miles" : "35140052"
        },
        "orbiting_body" : "Earth"
      } ],
      "orbital_data" : {
        "orbit_id" : "56",
        "orbit_determination_date" : "2016-06-20 05:45:29",
        "orbit_uncertainty" : "0",
        "minimum_orbit_intersection" : ".241157",
        "jupiter_tisserand_invariant" : "3.160",
        "epoch_osculation" : "2457600.5",
        "eccentricity" : ".5273915056225178",
        "semi_major_axis" : "2.647781386970573",
        "inclination" : "9.56607307838074",
        "ascending_node_longitude" : "157.9770768047021",
        "orbital_period" : "1573.698802018143",
        "perihelion_distance" : "1.251363974736884",
        "perihelion_argument" : "175.2666726003476",
        "aphelion_distance" : "4.044198799204262",
        "perihelion_time" : "2457628.847206740411",
        "mean_anomaly" : "353.5152810604793",
        "mean_motion" : ".2287604206969776",
        "equinox" : "J2000"
      }
    }, {
      "links" : {
        "self" : "https://api.nasa.gov/neo/rest/v1/neo/3423321?api_key=t0TVs3DtDT2H8Oy2Zy8m2eVrNsAVKAexjcZXUckd"
      },
      "neo_reference_id" : "3423321",
      "name" : "(2008 PW4)",
      "nasa_jpl_url" : "http://ssd.jpl.nasa.gov/sbdb.cgi?sstr=3423321",
      "absolute_magnitude_h" : 22.4,
      "estimated_diameter" : {
        "kilometers" : {
          "estimated_diameter_min" : 0.0880146521,
          "estimated_diameter_max" : 0.1968067451
        },
        "meters" : {
          "estimated_diameter_min" : 88.0146520901,
          "estimated_diameter_max" : 196.8067450894
        },
        "miles" : {
          "estimated_diameter_min" : 0.0546897524,
          "estimated_diameter_max" : 0.122290004
        },
        "feet" : {
          "estimated_diameter_min" : 288.7619911632,
          "estimated_diameter_max" : 645.6914415591
        }
      },
      "is_potentially_hazardous_asteroid" : false,
      "close_approach_data" : [ {
        "close_approach_date" : "2003-08-22",
        "epoch_date_close_approach" : 1061535600000,
        "relative_velocity" : {
          "kilometers_per_second" : "9.8799243613",
          "kilometers_per_hour" : "35567.7277007717",
          "miles_per_hour" : "22100.402803849"
        },
        "miss_distance" : {
          "astronomical" : "0.089027674",
          "lunar" : "34.6317634583",
          "kilometers" : "13318350",
          "miles" : "8275639.5"
        },
        "orbiting_body" : "Earth"
      } ],
      "orbital_data" : {
        "orbit_id" : "12",
        "orbit_determination_date" : "2017-04-06 09:03:07",
        "orbit_uncertainty" : "7",
        "minimum_orbit_intersection" : ".00410013",
        "jupiter_tisserand_invariant" : "5.389",
        "epoch_osculation" : "2458000.5",
        "eccentricity" : ".2726459864429167",
        "semi_major_axis" : "1.161128363105006",
        "inclination" : "2.672973047211987",
        "ascending_node_longitude" : "117.0178025211809",
        "orbital_period" : "457.0027122379673",
        "perihelion_distance" : ".8445513751593923",
        "perihelion_argument" : "295.3224671367292",
        "aphelion_distance" : "1.477705351050619",
        "perihelion_time" : "2457966.271352939853",
        "mean_anomaly" : "26.96332562515826",
        "mean_motion" : ".7877414955308696",
        "equinox" : "J2000"
      }
    }, {
      "links" : {
        "self" : "https://api.nasa.gov/neo/rest/v1/neo/2468448?api_key=t0TVs3DtDT2H8Oy2Zy8m2eVrNsAVKAexjcZXUckd"
      },
      "neo_reference_id" : "2468448",
      "name" : "468448 (2003 LS3)",
      "nasa_jpl_url" : "http://ssd.jpl.nasa.gov/sbdb.cgi?sstr=2468448",
      "absolute_magnitude_h" : 17.8,
      "estimated_diameter" : {
        "kilometers" : {
          "estimated_diameter_min" : 0.7320739893,
          "estimated_diameter_max" : 1.6369672047
        },
        "meters" : {
          "estimated_diameter_min" : 732.0739893473,
          "estimated_diameter_max" : 1636.96720474
        },
        "miles" : {
          "estimated_diameter_min" : 0.4548895468,
          "estimated_diameter_max" : 1.017163949
        },
        "feet" : {
          "estimated_diameter_min" : 2401.8176272101,
          "estimated_diameter_max" : 5370.6274839991
        }
      },
      "is_potentially_hazardous_asteroid" : false,
      "close_approach_data" : [ {
        "close_approach_date" : "2003-08-22",
        "epoch_date_close_approach" : 1061535600000,
        "relative_velocity" : {
          "kilometers_per_second" : "7.2417994575",
          "kilometers_per_hour" : "26070.4780468839",
          "miles_per_hour" : "16199.1812064096"
        },
        "miss_distance" : {
          "astronomical" : "0.3780310833",
          "lunar" : "147.0540924072",
          "kilometers" : "56552644",
          "miles" : "35140184"
        },
        "orbiting_body" : "Earth"
      } ],
      "orbital_data" : {
        "orbit_id" : "116",
        "orbit_determination_date" : "2017-04-06 09:19:22",
        "orbit_uncertainty" : "0",
        "minimum_orbit_intersection" : ".241078",
        "jupiter_tisserand_invariant" : "3.161",
        "epoch_osculation" : "2458000.5",
        "eccentricity" : ".5274420514318305",
        "semi_major_axis" : "2.647431283577751",
        "inclination" : "9.566239886242016",
        "ascending_node_longitude" : "157.9713250239918",
        "orbital_period" : "1573.386688405081",
        "perihelion_distance" : "1.251064696342698",
        "perihelion_argument" : "175.2579108643296",
        "aphelion_distance" : "4.043797870812804",
        "perihelion_time" : "2457628.842925260398",
        "mean_anomaly" : "85.03729432329457",
        "mean_motion" : ".2288058000318579",
        "equinox" : "J2000"
      }
    } ]
  }
}